{"fetched_at":"2026-03-29T16:36:15Z","count":15609,"tles":[{"name":"STARLINK-31364","line1":"1 59463U 24068J   26087.83966097  .00000453  00000+0  25989-4 0  9996","line2":"2 59463  43.0020 282.7214 0001273 278.5465  81.5242 15.27574946111492","category":"Starlink"}]}